NORAD_CAT_ID,OBJECT_NAME,OBJECT_TYPE,EPOCH,MEAN_MOTION,ECCENTRICITY,INCLINATION,RA_OF_ASC_NODE,ARG_OF_PERICENTER,MEAN_ANOMALY,BSTAR,MEAN_MOTION_DOT,MEAN_MOTION_DDOT,TLE_LINE0,TLE_LINE1,TLE_LINE2,SEMIMAJOR_AXIS,PERIOD,APOGEE,PERIGEE,DECAYED
51138.0,STARLINK-3177,PAYLOAD,2022-02-25 14:00:01,15.73146917,0.000369,53.2168,88.6931,11.2574,103.5588,0.00050188,0.00070264,0.0,0 STARLINK-3177,1 51138U 22005AL  22056.58334491  .00070264  00000-0  50188-3 0  9993,2 51138  53.2168  88.6931 0003690  11.2574 103.5588 15.73146917  3689,6728.047,91.536,352.394,347.42900000000014,0.0
51138.0,STARLINK-3177,PAYLOAD,2022-02-25 22:00:00,15.73180471,0.000347,53.217,87.0415,11.9656,191.7597,0.00044159,0.00061773,0.0,0 STARLINK-3177,1 51138U 22005AL  22056.91667824  .00061773  00000-0  44159-3 0  9995,2 51138  53.2170  87.0415 0003470  11.9656 191.7597 15.73180471  7288,6727.951,91.534,352.15,347.481,0.0
51138.0,STARLINK-3177,PAYLOAD,2022-02-26 14:00:01,15.7319169,0.0003772,53.2161,83.7447,10.2698,11.3053,0.00018279,0.00025106,0.0,0 STARLINK-3177,1 51138U 22005AL  22057.58334491  .00025106  00000-0  18279-3 0  9994,2 51138  53.2161  83.7447 0003772  10.2698  11.3053 15.73191690  7389,6727.919,91.534,352.32199999999995,347.246,0.0
51138.0,STARLINK-3177,PAYLOAD,2022-02-26 22:00:00,15.73201796,0.0003437,53.2162,82.0932,12.0839,98.4515,0.00027707,0.00038453,0.0,0 STARLINK-3177,1 51138U 22005AL  22057.91667824  .00038453  00000-0  27707-3 0  9995,2 51138  53.2162  82.0932 0003437  12.0839  98.4515 15.73201796  3694,6727.89,91.533,352.06699999999995,347.4430000000001,0.0
51138.0,STARLINK-3177,PAYLOAD,2022-02-27 14:00:01,15.73219836,0.00037,53.2165,78.7961,8.4147,279.9913,-0.00010251,-0.00015003,0.0,0 STARLINK-3177,1 51138U 22005AL  22058.58334491 -.00015003  00000-0 -10251-3 0  9994,2 51138  53.2165  78.7961 0003700   8.4147 279.9913 15.73219836  7545,6727.839,91.532,352.1930000000001,347.214,0.0
51138.0,STARLINK-3177,PAYLOAD,2022-02-27 22:00:00,15.73160923,0.0003464,53.2166,77.1444,9.4924,7.8889,0.00053685,0.00075291,0.0,0 STARLINK-3177,1 51138U 22005AL  22058.91667824  .00075291  00000-0  53685-3 0  9991,2 51138  53.2166  77.1444 0003464   9.4924   7.8889 15.73160923  3702,6728.007,91.535,352.202,347.541,0.0
51138.0,STARLINK-3177,PAYLOAD,2022-02-28 14:00:01,15.73237605,0.0003706,53.2158,73.8472,7.5025,187.7461,-0.00033789,-0.00047872,0.0,0 STARLINK-3177,1 51138U 22005AL  22059.58334491 -.00047872  00000-0 -33789-3 0  9995,2 51138  53.2158  73.8472 0003706   7.5025 187.7461 15.73237605  7707,6727.788000000001,91.531,352.146,347.16,0.0
51138.0,STARLINK-3177,PAYLOAD,2022-02-28 22:00:00,15.72798534,0.0003641,53.2165,72.1801,15.0352,269.2156,0.0029344,0.00425432,0.0,0 STARLINK-3177,1 51138U 22005AL  22059.91667824  .00425432  00000-0  29344-2 0  9992,2 51138  53.2165  72.1801 0003641  15.0352 269.2156 15.72798534  7752,6729.04,91.557,353.355,348.455,0.0
51138.0,STARLINK-3177,PAYLOAD,2022-03-01 06:00:00,15.73207955,0.0003653,53.2162,70.5476,12.6811,0.4184,-0.00014065,-0.0002033,0.0,0 STARLINK-3177,1 51138U 22005AL  22060.25001157 -.00020330  00000-0 -14065-3 0  9997,2 51138  53.2162  70.5476 0003653  12.6811   0.4184 15.73207955  7800,6727.871999999999,91.533,352.195,347.28,0.0
51138.0,STARLINK-3177,PAYLOAD,2022-03-01 14:00:01,15.73235231,0.0003792,53.2161,68.8983,12.3926,89.6205,-0.00033663,-0.00047693,0.0,0 STARLINK-3177,1 51138U 22005AL  22060.58334491 -.00047693  00000-0 -33663-3 0  9999,2 51138  53.2161  68.8983 0003792  12.3926  89.6205 15.73235231  3694,6727.795,91.531,352.211,347.1090000000001,0.0
51138.0,STARLINK-3177,PAYLOAD,2022-03-01 22:00:01,15.73150776,0.0003532,53.2163,67.2466,12.1075,178.93599999999995,0.00059759,0.00083931,0.0,0 STARLINK-3177,1 51138U 22005AL  22060.91668981  .00083931  00000-0  59759-3 0  9997,2 51138  53.2163  67.2466 0003532  12.1075 178.9360 15.73150776  3706,6728.036,91.536,352.277,347.524,0.0
51138.0,STARLINK-3177,PAYLOAD,2022-03-02 06:00:00,15.73235785,0.0003723,53.2165,65.5976,11.8081,268.0721,-0.00065211,-0.00091337,0.0,0 STARLINK-3177,1 51138U 22005AL  22061.25001157 -.00091337  00000-0 -65211-3 0  9992,2 51138  53.2165  65.5976 0003723  11.8081 268.0721 15.73235785  7968,6727.793000000002,91.531,352.163,347.153,0.0
51138.0,STARLINK-3177,PAYLOAD,2022-03-02 14:00:01,15.73178196,0.000376,53.2158,63.9493,9.8627,358.9395,0.00019059,0.00026192,0.0,0 STARLINK-3177,1 51138U 22005AL  22061.58334491  .00026192  00000-0  19059-3 0  9992,2 51138  53.2158  63.9493 0003760   9.8627 358.9395 15.73178196  3672,6727.956999999999,91.534,352.352,347.293,0.0
51138.0,STARLINK-3177,PAYLOAD,2022-03-02 20:00:01,15.73188686,0.0003485,53.2159,62.7105,9.9828,335.5041,0.00012143,0.00016448,0.0,0 STARLINK-3177,1 51138U 22005AL  22061.83334491  .00016448  00000-0  12143-3 0  9990,2 51138  53.2159  62.7105 0003485   9.9828 335.5041 15.73188686  8059,6727.927,91.534,352.13699999999994,347.4480000000001,0.0
51138.0,STARLINK-3177,PAYLOAD,2022-03-02 22:00:00,15.73203819,0.0003443,53.216,62.2979,10.5541,87.1597,-0.00011856,-0.00017237,0.0,0 STARLINK-3177,1 51138U 22005AL  22061.91667824 -.00017237  00000-0 -11856-3 0  9997,2 51138  53.2160  62.2979 0003443  10.5541  87.1597 15.73203819  3696,6727.884,91.533,352.066,347.43300000000005,0.0
51138.0,STARLINK-3177,PAYLOAD,2022-03-03 14:00:01,15.73207938,0.0003687,53.2164,59.0004,9.0287,266.5035,0.0001039,0.00013992,0.0,0 STARLINK-3177,1 51138U 22005AL  22062.58334491  .00013992  00000-0  10390-3 0  9996,2 51138  53.2164  59.0004 0003687   9.0287 266.5035 15.73207938  8177,6727.873000000001,91.533,352.218,347.25699999999995,0.0
51138.0,STARLINK-3177,PAYLOAD,2022-03-03 22:00:00,15.73231855,0.0003483,53.2168,57.349,10.204,354.2696,-0.00011311,-0.00016494,0.0,0 STARLINK-3177,1 51138U 22005AL  22062.91667824 -.00016494  00000-0 -11311-3 0  9998,2 51138  53.2168  57.3490 0003483  10.2040 354.2696 15.73231855  3691,6727.804,91.531,352.01300000000015,347.326,0.0
51138.0,STARLINK-3177,PAYLOAD,2022-03-04 14:00:01,15.73269921,0.0003638,53.2164,54.0514,8.3325,174.1039,-0.00062154,-0.00087251,0.0,0 STARLINK-3177,1 51138U 22005AL  22063.58335648 -.00087251  00000-0 -62154-3 0  9998,2 51138  53.2164  54.0514 0003638   8.3325 174.1039 15.73269921  8324,6727.696,91.529,352.0080000000001,347.11300000000006,0.0
51138.0,STARLINK-3177,PAYLOAD,2022-03-04 22:00:00,15.73186422,0.0003368,53.2167,52.4003,7.8502,263.4985,0.00060697,0.00085402,0.0,0 STARLINK-3177,1 51138U 22005AL  22063.91667824  .00085402  00000-0  60697-3 0  9993,2 51138  53.2167  52.4003 0003368   7.8502 263.4985 15.73186422  3694,6727.934,91.534,352.065,347.533,0.0
51138.0,STARLINK-3177,PAYLOAD,2022-03-05 06:00:00,15.73256726,0.0003563999999999,53.217,50.7529,7.3989,352.9058,-0.00046118,-0.00065032,0.0,0 STARLINK-3177,1 51138U 22005AL  22064.25001157 -.00065032  00000-0 -46118-3 0  9993,2 51138  53.2170  50.7529 0003564   7.3989 352.9058 15.73256726  8431,6727.733,91.53,351.996,347.201,0.0
51138.0,STARLINK-3177,PAYLOAD,2022-03-05 14:00:01,15.73223921,0.000359,53.2172,49.1027,7.626,81.6461,-0.00030756,-0.00043625,0.0,0 STARLINK-3177,1 51138U 22005AL  22064.58334491 -.00043625  00000-0 -30756-3 0  9994,2 51138  53.2172  49.1027 0003590   7.6260  81.6461 15.73223921  3678,6727.8269999999975,91.532,352.107,347.277,0.0
51138.0,STARLINK-3177,PAYLOAD,2022-03-05 22:00:01,15.73210968,0.0003367,53.2176,47.4517,10.9615,167.3065,0.00025675,0.00035589,0.0,0 STARLINK-3177,1 51138U 22005AL  22064.91668981  .00035589  00000-0  25675-3 0  9997,2 51138  53.2176  47.4517 0003367  10.9615 167.3065 15.73210968  8539,6727.864000000001,91.533,351.994,347.464,0.0
51138.0,STARLINK-3177,PAYLOAD,2022-03-06 14:00:01,15.73207021,0.0003551,53.2172,44.154,6.0712,350.0623,0.00011653,0.00015771,0.0,0 STARLINK-3177,1 51138U 22005AL  22065.58334491  .00015771  00000-0  11653-3 0  9999,2 51138  53.2172  44.1540 0003551   6.0712 350.0623 15.73207021  8643,6727.875,91.533,352.129,347.351,0.0
51138.0,STARLINK-3177,PAYLOAD,2022-03-06 22:00:00,15.73229171,0.0003301,53.2173,42.5035,8.7444,76.3304,-0.00040813,-0.00057601,0.0,0 STARLINK-3177,1 51138U 22005AL  22065.91667824 -.00057601  00000-0 -40813-3 0  9995,2 51138  53.2173  42.5035 0003301   8.7444  76.3304 15.73229171  3660,6727.812,91.531,351.898,347.456,0.0
51138.0,STARLINK-3177,PAYLOAD,2022-03-07 06:00:00,15.73163305,0.0003537,53.2166,40.8562,6.6384,167.3842,-0.00037137,-0.00052358,0.0,0 STARLINK-3177,1 51138U 22005AL  22066.25001157 -.00052358  00000-0 -37137-3 0  9993,2 51138  53.2166  40.8562 0003537   6.6384 167.3842 15.73163305  8747,6728.0,91.535,352.244,347.485,0.0
51138.0,STARLINK-3177,PAYLOAD,2022-03-07 12:00:00,15.73156713,0.0003533,53.216,39.6189,6.0785,144.5868,-0.00026554,-0.00037668,0.0,0 STARLINK-3177,1 51138U 22005AL  22066.50001157 -.00037668  00000-0 -26554-3 0  9999,2 51138  53.2160  39.6189 0003533   6.0785 144.5868 15.73156713  3731,6728.019,91.536,352.261,347.50699999999995,0.0
51138.0,STARLINK-3177,PAYLOAD,2022-03-07 22:00:00,15.73098759,0.0003359,53.216,37.5554,12.2099,339.5245,0.00060651,0.00085011,0.0,0 STARLINK-3177,1 51138U 22005AL  22066.91667824  .00085011  00000-0  60651-3 0  9992,2 51138  53.2160  37.5554 0003359  12.2099 339.5245 15.73098759  8855,6728.184,91.539,352.309,347.789,0.0
51138.0,STARLINK-3177,PAYLOAD,2022-03-08 06:00:02,15.73129361,0.0003682,53.2161,35.9033,12.069,68.5653,0.00044736,0.00062458,0.0,0 STARLINK-3177,1 51138U 22005AL  22067.25002315  .00062458  00000-0  44736-3 0  9994,2 51138  53.2161  35.9033 0003682  12.0690  68.5653 15.73129361  8906,6728.097,91.537,352.439,347.4840000000001,0.0
51138.0,STARLINK-3177,PAYLOAD,2022-03-08 14:00:01,15.73302069,0.0003515,53.2163,34.2445,10.779000000000002,158.6683,-0.0025587,-0.00347028,0.0,0 STARLINK-3177,1 51138U 22005AL  22067.58334491 -.00347028  00000-0 -25587-2 0  9996,2 51138  53.2163  34.2445 0003515  10.7790 158.6683 15.73302069  3691,6727.604,91.527,351.834,347.10400000000016,0.0
